[{"OBJECT_NAME":"STARLINK-32624","OBJECT_ID":"2024-207Q","EPOCH":"2026-03-09T22:11:11.509728","MEAN_MOTION":15.27600835,"ECCENTRICITY":0.00012,"INCLINATION":43.0012,"RA_OF_ASC_NODE":279.9264,"ARG_OF_PERICENTER":291.0268,"MEAN_ANOMALY":69.0455,"EPHEMERIS_TYPE":0,"CLASSIFICATION_TYPE":"U","NORAD_CAT_ID":61926,"ELEMENT_SET_NO":999,"REV_AT_EPOCH":7476,"BSTAR":0.0010669695,"MEAN_MOTION_DOT":0.00029234,"MEAN_MOTION_DDOT":0},{"OBJECT_NAME":"OBJECT BC","OBJECT_ID":"2025-313BC","EPOCH":"2026-03-09T04:33:08.504064","MEAN_MOTION":15.29126358,"ECCENTRICITY":0.00084789,"INCLINATION":97.3985,"RA_OF_ASC_NODE":144.811,"ARG_OF_PERICENTER":328.9209,"MEAN_ANOMALY":31.1528,"EPHEMERIS_TYPE":0,"CLASSIFICATION_TYPE":"U","NORAD_CAT_ID":67298,"ELEMENT_SET_NO":999,"REV_AT_EPOCH":789,"BSTAR":0.0026410397,"MEAN_MOTION_DOT":0.00075331,"MEAN_MOTION_DDOT":0}]
